CCSDS_OMM_VERS = 2.0
CREATION_DATE  = 
ORIGINATOR     = 

OBJECT_NAME    = KUIPER-00220
OBJECT_ID      = 2026-030T
CENTER_NAME    = EARTH
REF_FRAME      = TEME
TIME_SYSTEM    = UTC
MEAN_ELEMENT_THEORY = SGP/SGP4

EPOCH          = 2026-03-01T10:36:40.478688
MEAN_MOTION    = 15.34350953
ECCENTRICITY   = .0008051
INCLINATION    = 51.8796
RA_OF_ASC_NODE = 259.0364
ARG_OF_PERICENTER = 34.1795
MEAN_ANOMALY   = 325.9708

EPHEMERIS_TYPE = 0
CLASSIFICATION_TYPE = U
NORAD_CAT_ID   = 67781
ELEMENT_SET_NO = 999
REV_AT_EPOCH   = 382
BSTAR          = .67017E-3
MEAN_MOTION_DOT = .22337E-3
MEAN_MOTION_DDOT = 0

CCSDS_OMM_VERS = 2.0
CREATION_DATE  = 
ORIGINATOR     = 

OBJECT_NAME    = KUIPER-00222
OBJECT_ID      = 2026-030U
CENTER_NAME    = EARTH
REF_FRAME      = TEME
TIME_SYSTEM    = UTC
MEAN_ELEMENT_THEORY = SGP/SGP4

EPOCH          = 2026-03-01T12:34:48.803808
MEAN_MOTION    = 15.32430898
ECCENTRICITY   = .0017311
INCLINATION    = 51.8805
RA_OF_ASC_NODE = 258.8298
ARG_OF_PERICENTER = 39.2881
MEAN_ANOMALY   = 320.9356

EPHEMERIS_TYPE = 0
CLASSIFICATION_TYPE = U
NORAD_CAT_ID   = 67782
ELEMENT_SET_NO = 999
REV_AT_EPOCH   = 383
BSTAR          = .96862E-3
MEAN_MOTION_DOT = .30671E-3
MEAN_MOTION_DDOT = 0

CCSDS_OMM_VERS = 2.0
CREATION_DATE  = 
ORIGINATOR     = 

OBJECT_NAME    = KUIPER-00223
OBJECT_ID      = 2026-030V
CENTER_NAME    = EARTH
REF_FRAME      = TEME
TIME_SYSTEM    = UTC
MEAN_ELEMENT_THEORY = SGP/SGP4

EPOCH          = 2026-03-01T12:18:22.442400
MEAN_MOTION    = 15.33854793
ECCENTRICITY   = .0012171
INCLINATION    = 51.8814
RA_OF_ASC_NODE = 258.7620
ARG_OF_PERICENTER = 37.2199
MEAN_ANOMALY   = 322.9628

EPHEMERIS_TYPE = 0
CLASSIFICATION_TYPE = U
NORAD_CAT_ID   = 67783
ELEMENT_SET_NO = 999
REV_AT_EPOCH   = 383
BSTAR          = .63724E-3
MEAN_MOTION_DOT = .20906E-3
MEAN_MOTION_DDOT = 0

CCSDS_OMM_VERS = 2.0
CREATION_DATE  = 
ORIGINATOR     = 

OBJECT_NAME    = KUIPER-00225
OBJECT_ID      = 2026-030W
CENTER_NAME    = EARTH
REF_FRAME      = TEME
TIME_SYSTEM    = UTC
MEAN_ELEMENT_THEORY = SGP/SGP4

EPOCH          = 2026-03-01T10:19:15.000672
MEAN_MOTION    = 15.35488161
ECCENTRICITY   = .0003615
INCLINATION    = 51.8796
RA_OF_ASC_NODE = 258.9593
ARG_OF_PERICENTER = 20.4405
MEAN_ANOMALY   = 339.6725

EPHEMERIS_TYPE = 0
CLASSIFICATION_TYPE = U
NORAD_CAT_ID   = 67784
ELEMENT_SET_NO = 999
REV_AT_EPOCH   = 382
BSTAR          = .7116E-3
MEAN_MOTION_DOT = .24617E-3
MEAN_MOTION_DDOT = 0

CCSDS_OMM_VERS = 2.0
CREATION_DATE  = 
ORIGINATOR     = 

OBJECT_NAME    = KUIPER-00226
OBJECT_ID      = 2026-030X
CENTER_NAME    = EARTH
REF_FRAME      = TEME
TIME_SYSTEM    = UTC
MEAN_ELEMENT_THEORY = SGP/SGP4

EPOCH          = 2026-03-01T11:13:23.193120
MEAN_MOTION    = 15.31439268
ECCENTRICITY   = .0019976
INCLINATION    = 51.8820
RA_OF_ASC_NODE = 259.1986
ARG_OF_PERICENTER = 47.7575
MEAN_ANOMALY   = 312.5100

EPHEMERIS_TYPE = 0
CLASSIFICATION_TYPE = U
NORAD_CAT_ID   = 67785
ELEMENT_SET_NO = 999
REV_AT_EPOCH   = 382
BSTAR          = .12338E-2
MEAN_MOTION_DOT = .38061E-3
MEAN_MOTION_DDOT = 0

CCSDS_OMM_VERS = 2.0
CREATION_DATE  = 
ORIGINATOR     = 

OBJECT_NAME    = KUIPER-00259
OBJECT_ID      = 2026-030Y
CENTER_NAME    = EARTH
REF_FRAME      = TEME
TIME_SYSTEM    = UTC
MEAN_ELEMENT_THEORY = SGP/SGP4

EPOCH          = 2026-03-01T10:32:00.420000
MEAN_MOTION    = 15.34680052
ECCENTRICITY   = .0007827
INCLINATION    = 51.8799
RA_OF_ASC_NODE = 259.0161
ARG_OF_PERICENTER = 26.5049
MEAN_ANOMALY   = 333.6336

EPHEMERIS_TYPE = 0
CLASSIFICATION_TYPE = U
NORAD_CAT_ID   = 67786
ELEMENT_SET_NO = 999
REV_AT_EPOCH   = 382
BSTAR          = .10004E-2
MEAN_MOTION_DOT = .33937E-3
MEAN_MOTION_DDOT = 0

CCSDS_OMM_VERS = 2.0
CREATION_DATE  = 
ORIGINATOR     = 

OBJECT_NAME    = KUIPER-00260
OBJECT_ID      = 2026-030Z
CENTER_NAME    = EARTH
REF_FRAME      = TEME
TIME_SYSTEM    = UTC
MEAN_ELEMENT_THEORY = SGP/SGP4

EPOCH          = 2026-03-01T10:10:17.839776
MEAN_MOTION    = 15.36040962
ECCENTRICITY   = .000087
INCLINATION    = 51.8788
RA_OF_ASC_NODE = 258.9181
ARG_OF_PERICENTER = 84.8936
MEAN_ANOMALY   = 275.2150

EPHEMERIS_TYPE = 0
CLASSIFICATION_TYPE = U
NORAD_CAT_ID   = 67787
ELEMENT_SET_NO = 999
REV_AT_EPOCH   = 373
BSTAR          = .75272E-3
MEAN_MOTION_DOT = .26536E-3
MEAN_MOTION_DDOT = 0

CCSDS_OMM_VERS = 2.0
CREATION_DATE  = 
ORIGINATOR     = 

OBJECT_NAME    = KUIPER-00262
OBJECT_ID      = 2026-030AA
CENTER_NAME    = EARTH
REF_FRAME      = TEME
TIME_SYSTEM    = UTC
MEAN_ELEMENT_THEORY = SGP/SGP4

EPOCH          = 2026-03-01T10:06:23.784768
MEAN_MOTION    = 15.36354352
ECCENTRICITY   = .0000923
INCLINATION    = 51.8802
RA_OF_ASC_NODE = 258.9032
ARG_OF_PERICENTER = 153.1606
MEAN_ANOMALY   = 206.9428

EPHEMERIS_TYPE = 0
CLASSIFICATION_TYPE = U
NORAD_CAT_ID   = 67788
ELEMENT_SET_NO = 999
REV_AT_EPOCH   = 382
BSTAR          = .11791E-2
MEAN_MOTION_DOT = .42302E-3
MEAN_MOTION_DDOT = 0

CCSDS_OMM_VERS = 2.0
CREATION_DATE  = 
ORIGINATOR     = 

OBJECT_NAME    = KUIPER-00266
OBJECT_ID      = 2026-030AB
CENTER_NAME    = EARTH
REF_FRAME      = TEME
TIME_SYSTEM    = UTC
MEAN_ELEMENT_THEORY = SGP/SGP4

EPOCH          = 2026-03-01T11:18:34.816320
MEAN_MOTION    = 15.31024337
ECCENTRICITY   = .0022348
INCLINATION    = 51.8819
RA_OF_ASC_NODE = 259.2197
ARG_OF_PERICENTER = 48.2179
MEAN_ANOMALY   = 312.0710

EPHEMERIS_TYPE = 0
CLASSIFICATION_TYPE = U
NORAD_CAT_ID   = 67789
ELEMENT_SET_NO = 999
REV_AT_EPOCH   = 382
BSTAR          = .46023E-3
MEAN_MOTION_DOT = .13753E-3
MEAN_MOTION_DDOT = 0

CCSDS_OMM_VERS = 2.0
CREATION_DATE  = 
ORIGINATOR     = 

OBJECT_NAME    = KUIPER-00268
OBJECT_ID      = 2026-030AC
CENTER_NAME    = EARTH
REF_FRAME      = TEME
TIME_SYSTEM    = UTC
MEAN_ELEMENT_THEORY = SGP/SGP4

EPOCH          = 2026-03-01T10:16:00.592896
MEAN_MOTION    = 15.35603610
ECCENTRICITY   = .0001879
INCLINATION    = 51.8833
RA_OF_ASC_NODE = 258.9501
ARG_OF_PERICENTER = 33.0066
MEAN_ANOMALY   = 327.1037

EPHEMERIS_TYPE = 0
CLASSIFICATION_TYPE = U
NORAD_CAT_ID   = 67790
ELEMENT_SET_NO = 999
REV_AT_EPOCH   = 382
BSTAR          = .59108E-3
MEAN_MOTION_DOT = .20446E-3
MEAN_MOTION_DDOT = 0

CCSDS_OMM_VERS = 2.0
CREATION_DATE  = 
ORIGINATOR     = 

OBJECT_NAME    = KUIPER-00270
OBJECT_ID      = 2026-030AD
CENTER_NAME    = EARTH
REF_FRAME      = TEME
TIME_SYSTEM    = UTC
MEAN_ELEMENT_THEORY = SGP/SGP4

EPOCH          = 2026-03-01T10:38:13.584192
MEAN_MOTION    = 15.34253650
ECCENTRICITY   = .0009902
INCLINATION    = 51.8794
RA_OF_ASC_NODE = 259.0431
ARG_OF_PERICENTER = 33.5018
MEAN_ANOMALY   = 326.6592

EPHEMERIS_TYPE = 0
CLASSIFICATION_TYPE = U
NORAD_CAT_ID   = 67791
ELEMENT_SET_NO = 999
REV_AT_EPOCH   = 382
BSTAR          = .65646E-3
MEAN_MOTION_DOT = .21813E-3
MEAN_MOTION_DDOT = 0

CCSDS_OMM_VERS = 2.0
CREATION_DATE  = 
ORIGINATOR     = 

OBJECT_NAME    = KUIPER-00274
OBJECT_ID      = 2026-030AE
CENTER_NAME    = EARTH
REF_FRAME      = TEME
TIME_SYSTEM    = UTC
MEAN_ELEMENT_THEORY = SGP/SGP4

EPOCH          = 2026-03-01T12:39:19.649664
MEAN_MOTION    = 15.31690738
ECCENTRICITY   = .001737
INCLINATION    = 51.8829
RA_OF_ASC_NODE = 258.8563
ARG_OF_PERICENTER = 44.9304
MEAN_ANOMALY   = 315.3082

EPHEMERIS_TYPE = 0
CLASSIFICATION_TYPE = U
NORAD_CAT_ID   = 67792
ELEMENT_SET_NO = 999
REV_AT_EPOCH   = 383
BSTAR          = .10624E-2
MEAN_MOTION_DOT = .32911E-3
MEAN_MOTION_DDOT = 0

